OBJECT_NAME,OBJECT_ID,EPOCH,MEAN_MOTION,ECCENTRICITY,INCLINATION,RA_OF_ASC_NODE,ARG_OF_PERICENTER,MEAN_ANOMALY,EPHEMERIS_TYPE,CLASSIFICATION_TYPE,NORAD_CAT_ID,ELEMENT_SET_NO,REV_AT_EPOCH,BSTAR,MEAN_MOTION_DOT,MEAN_MOTION_DDOT
LEMUR-2-FINNIAN,2025-276DX,2026-07-21T03:45:09.751104,15.00658169,.00067888,97.5340,272.0921,337.1600,22.9321,0,U,66782,999,2509,.14778487E-3,.1812E-4,0
LEMUR-2-STARLIGHT,2025-276DY,2026-07-21T03:24:26.468064,14.99404237,.00145694,97.5237,271.6217,29.2659,330.9377,0,U,66783,999,3528,.42784416E-3,.5194E-4,0
LEMUR-2-TARTIFLETTE,2025-276DZ,2026-07-21T03:22:14.263104,14.99385365,.00138286,97.5234,271.6280,38.0070,322.2126,0,U,66784,999,3528,.40272241E-3,.4882E-4,0
LEMUR-2-VUKASIN,2025-276EA,2026-07-21T04:08:44.219328,15.00579723,.00021227,97.5200,272.0268,33.3780,326.7577,0,U,66785,999,3524,.30092036E-3,.3742E-4,0
LEMUR-2-HOTSPUR-TOM,2025-276EB,2026-07-21T11:15:17.107200,14.99283924,.00135371,97.5214,271.9170,28.9034,331.2937,0,U,66786,999,3526,.37962554E-3,.4586E-4,0
LEMUR-2-MYRA,2025-276EC,2026-07-21T11:18:28.103040,15.00636487,.00185323,97.5224,272.2363,34.9739,325.2699,0,U,66787,999,3535,.40264288E-3,.5052E-4,0
LEMUR-2 FIKRETDENGIZ,2026-004A,2026-07-20T22:46:18.512832,14.88543101,.00097849,97.8036,199.9951,39.3350,320.8576,0,U,67363,999,2830,.32833972E-3,.3002E-4,0
TWILIGHT-1 OBJECT B,2026-004B,2026-07-20T23:43:51.115584,14.87805943,.00093149,97.8078,200.0319,28.9865,331.1867,0,U,67364,999,2831,.12739587E-3,.111E-4,0
LEMUR-2-MARIO-SOUSA,2026-004C,2026-07-21T11:10:24.432384,14.88761231,.00093755,97.8009,200.4991,39.3938,320.7959,0,U,67365,999,2839,.43479806E-3,.4015E-4,0
LEMUR-2-SONNENBLUME,2026-004E,2026-07-21T11:16:12.479232,14.88475296,.00090198,97.8005,200.4728,40.2531,319.9352,0,U,67367,999,2839,.22262519E-3,.2014E-4,0
LEMUR-2-WOBLER,2026-004F,2026-07-21T10:59:16.714176,14.88727128,.00089585,97.8058,200.6187,32.1371,328.0390,0,U,67368,999,2839,.3578074E-3,.3291E-4,0
LEMUR-2-GRAM-E-SUE,2026-004H,2026-07-21T14:02:13.270848,14.88609827,.00082282,97.7992,200.6030,43.4846,316.7018,0,U,67370,999,2841,.19850998E-3,.1796E-4,0
LEMUR-2-KATIE,2026-004AA,2026-07-21T11:13:16.473792,14.90286089,.0002881,97.8052,201.0598,18.3057,341.8264,0,U,67387,999,2841,.43383077E-3,.4159E-4,0
LEMUR-2-HCS-BAZUS,2026-004AB,2026-07-20T23:54:03.311424,14.90288038,.0002444,97.8039,200.5715,20.6749,339.4568,0,U,67388,999,2834,.29559763E-3,.2816E-4,0
